1 25338U 98030A   22027.53716847  .00000059  00000-0  43087-4 0  9995
2 25338  98.6610  58.8005 0010145 354.1314   5.9745 14.26085163232936